ONEWEB-0258             
1 48976U 21060K   26004.25490179 -.00000033  00000+0 -12045-3 0  9994
2 48976  87.9039 261.4258 0001429  77.3284 282.8007 13.16594180218025
ONEWEB-0259             
1 48977U 21060L   26004.17256970  .00000184  00000+0  44680-3 0  9990
2 48977  87.9045 261.4380 0001367  69.1584 290.9694 13.16594669218048
ONEWEB-0260             
1 48978U 21060M   26004.23985086  .00000089  00000+0  19793-3 0  9996
2 48978  87.9031 261.4359 0001902  73.9007 286.2334 13.16597311218033
ONEWEB-0261             
1 48979U 21060N   26004.20977504  .00000122  00000+0  28645-3 0  9994
2 48979  87.9031 261.4438 0001566  59.7149 300.4137 13.16595665218082
ONEWEB-0262             
1 48980U 21060P   26004.26598267 -.00000043  00000+0 -14609-3 0  9996
2 48980  87.9042 261.4085 0001224  70.5998 289.5265 13.16593683218052
ONEWEB-0263             
1 48981U 21060Q   26004.22165251  .00000151  00000+0  36196-3 0  9999
2 48981  87.9038 261.4303 0001468  59.2753 300.8522 13.16593813218018
ONEWEB-0264             
1 48982U 21060R   26004.25886028 -.00000043  00000+0 -14649-3 0  9996
2 48982  87.9039 261.4262 0001722  68.2541 291.8773 13.16595335218021
ONEWEB-0266             
1 48984U 21060T   26004.20423472  .00000104  00000+0  23776-3 0  9990
2 48984  87.9043 261.4248 0001337  78.0970 282.0311 13.16593465218009
